[{"OBJECT_NAME":"TIANMU-1 10","OBJECT_ID":"2023-101D","EPOCH":"2026-03-09T23:06:46.939392","MEAN_MOTION":15.2921896,"ECCENTRICITY":0.00069292,"INCLINATION":97.2749,"RA_OF_ASC_NODE":122.1027,"ARG_OF_PERICENTER":133.6162,"MEAN_ANOMALY":226.5654,"EPHEMERIS_TYPE":0,"CLASSIFICATION_TYPE":"U","NORAD_CAT_ID":57402,"ELEMENT_SET_NO":999,"REV_AT_EPOCH":14647,"BSTAR":0.00032238884,"MEAN_MOTION_DOT":9.075e-5,"MEAN_MOTION_DDOT":0},{"OBJECT_NAME":"STARLINK-36137","OBJECT_ID":"2025-294D","EPOCH":"2026-03-09T22:54:56.854944","MEAN_MOTION":15.27588717,"ECCENTRICITY":6.499e-5,"INCLINATION":42.9973,"RA_OF_ASC_NODE":36.243,"ARG_OF_PERICENTER":155.8503,"MEAN_ANOMALY":204.2379,"EPHEMERIS_TYPE":0,"CLASSIFICATION_TYPE":"U","NORAD_CAT_ID":67033,"ELEMENT_SET_NO":999,"REV_AT_EPOCH":1484,"BSTAR":0.00083990792,"MEAN_MOTION_DOT":0.00022928,"MEAN_MOTION_DDOT":0}]
